SES-2                   
1 37809U 11049A   26200.24664815 -.00000201  00000+0  00000+0 0  9990
2 37809   0.1383  90.8584 0002795  24.7843 183.1793  1.00271707 54285
ARABSAT-5C              
1 37810U 11049B   26200.26788159  .00000118  00000+0  00000+0 0  9998
2 37810   0.0550  29.8076 0003562 105.1207 278.5612  1.00273219 54358
EUTELSAT 7 WEST A       
1 37816U 11051A   26200.26242156 -.00000066  00000+0  00000+0 0  9992
2 37816   0.0607 358.1491 0004800 131.0570 254.9845  1.00271648 54195
QUETZSAT 1              
1 37826U 11054A   26200.24864149 -.00000247  00000+0  00000+0 0  9997
2 37826   0.0431 270.2795 0002814 211.8567 187.4120  1.00271878 50195
INTELSAT 18 (IS-18)     
1 37834U 11056A   26200.25531009  .00000048  00000+0  00000+0 0  9993
2 37834   0.0394 234.1228 0001435 270.6110  64.2258  1.00274773 54136
EUTELSAT 16A            
1 37836U 11057A   26200.26701492  .00000099  00000+0  00000+0 0  9998
2 37836   0.0444  31.2246 0005536  87.3978 290.5640  1.00269945  7650
VIASAT-1                
1 37843U 11059A   26200.22197497  .00000000  00000+0  00000+0 0  9990
2 37843   0.0190  54.3152 0002461  54.6903 152.8245  1.00271488 47646
ASIASAT 7               
1 37933U 11069A   26199.87097383 -.00000340  00000+0  00000+0 0  9990
2 37933   0.0254  76.6701 0001304  14.9015 264.1552  1.00270619 45171
BEIDOU-2 IGSO-5         
1 37948U 11073A   26183.72937883 -.00000128  00000+0  00000+0 0  9990
2 37948  47.6496 271.3544 0114527 222.0502 141.5350  1.00270596 53296
LUCH-5A                 
1 37951U 11074B   26199.53772206 -.00000060  00000+0  00000+0 0  9992
2 37951   8.8316  73.3451 0002740  60.5783 163.0027  1.00273792 53365
NIGCOMSAT 1R            
1 38014U 11077A   26200.27230161  .00000140  00000+0  00000+0 0  9997
2 38014   0.0352 109.8020 0002407 241.2795  86.4944  1.00273195 53271
WGS F4 (USA 233)        
1 38070U 12003A   26200.12316785 -.00000220  00000+0  00000+0 0  9990
2 38070   0.0203  54.8272 0000189 112.9023 261.9323  1.00269849 44462
SES-4                   
1 38087U 12007A   26199.99072605 -.00000174  00000+0  00000+0 0  9992
2 38087   0.0229  32.4350 0002507  88.9002 150.1212  1.00272148 52542
BEIDOU-2 G5             
1 38091U 12008A   26200.13298605  .00000050  00000+0  00000+0 0  9999
2 38091   3.6519  69.4979 0007304 269.3906  64.5616  1.00271504 52689
MUOS-1                  
1 38093U 12009A   26200.27961361 -.00000135  00000+0  00000+0 0  9998
2 38093   5.5395  47.1071 0056568   3.6429 247.0305  1.00271522 52767
INTELSAT 22 (IS-22)     
1 38098U 12011A   26200.18913678 -.00000064  00000+0  00000+0 0  9995
2 38098   0.0210  61.7067 0001841  68.6460 306.8175  1.00272040  7502
APSTAR-7                
1 38107U 12013A   26200.17872223 -.00000107  00000+0  00000+0 0  9995
2 38107   0.0321  95.9712 0003028  31.3592 310.4752  1.00271104 52124
YAHSAT 1B               
1 38245U 12016A   26200.20207377  .00000121  00000+0  00000+0 0  9992
2 38245   0.0868  88.9713 0002607  23.5094 304.8603  1.00269324 45921
AEHF-2 (USA 235)        
1 38254U 12019A   26199.92266925 -.00000144  00000+0  00000+0 0  9991
2 38254   6.7213  57.2448 0002165  63.3561 131.7954  1.00271966  7303
JCSAT-13                
1 38331U 12023A   26200.28842167 -.00000361  00000+0  00000+0 0  9993
2 38331   0.0173  53.9877 0002117  62.3830  48.5434  1.00272717 51868
VINASAT-2               
1 38332U 12023B   26200.21862718 -.00000334  00000+0  00000+0 0  9991
2 38332   0.0182 344.6448 0002303 129.4818  33.4305  1.00272347 46987
NIMIQ 6                 
1 38342U 12026A   26200.23308637 -.00000179  00000+0  00000+0 0  9999
2 38342   0.0605 264.2209 0002852 217.3143 168.2981  1.00271412 50734
ZHONGXING-2A            
1 38352U 12028A   26200.10580638 -.00000298  00000+0  00000+0 0  9993
2 38352   1.5355  83.4774 0001470  39.9069 309.8330  1.00269034 51617
INTELSAT 19 (IS-19)     
1 38356U 12030A   26200.22547387 -.00000062  00000+0  00000+0 0  9996
2 38356   0.0149  56.3088 0002956  60.7094  67.1535  1.00272108 50776
ECHOSTAR 17             
1 38551U 12035A   26200.17136655 -.00000081  00000+0  00000+0 0  9995
2 38551   0.0188  57.8688 0002249  56.0962 137.5815  1.00271813 51388
METEOSAT-10 (MSG-3)     
1 38552U 12035B   26200.26389490 -.00000014  00000+0  00000+0 0  9999
2 38552   4.7459  60.8626 0001347  17.4483 313.7879  1.00272097 51174
SES-5                   
1 38652U 12036A   26199.97961603  .00000028  00000+0  00000+0 0  9992
2 38652   0.0439 320.8002 0001944 157.8120 175.7944  1.00272416 44771
INTELSAT 20 (IS-20)     
1 38740U 12043A   26200.19608413 -.00000030  00000+0  00000+0 0  9996
2 38740   0.0153  74.3878 0001344 108.5740 253.1165  1.00271123 51069
HYLAS 2                 
1 38741U 12043B   26200.23428241 -.00000264  00000+0  00000+0 0  9990
2 38741   2.5082  80.6807 0002438  55.4747 172.6360  1.00272087 51097
INTELSAT 21 (IS-21)     
1 38749U 12045A   26200.21912183 -.00000290  00000+0  00000+0 0  9990
2 38749   0.0491 244.4090 0001725 243.9872 189.5020  1.00271887 50846
ASTRA 2F                
1 38778U 12051A   26200.26944159  .00000145  00000+0  00000+0 0  9990
2 38778   0.0780 254.6844 0003099 287.1865 240.3330  1.00271736 41457
GSAT-10                 
1 38779U 12051B   26200.12316785 -.00000170  00000+0  00000+0 0  9993
2 38779   0.0804 264.2180 0007534 191.0117 329.0291  1.00272771 50413
