OBJECT_NAME,OBJECT_ID,EPOCH,MEAN_MOTION,ECCENTRICITY,INCLINATION,RA_OF_ASC_NODE,ARG_OF_PERICENTER,MEAN_ANOMALY,EPHEMERIS_TYPE,CLASSIFICATION_TYPE,NORAD_CAT_ID,ELEMENT_SET_NO,REV_AT_EPOCH,BSTAR,MEAN_MOTION_DOT,MEAN_MOTION_DDOT
SES-2,2011-049A,2026-07-19T05:55:10.400160,1.00271707,.00027954,0.1383,90.8584,24.7843,183.1793,0,U,37809,999,5428,0,-.201E-5,0
ARABSAT-5C,2011-049B,2026-07-19T06:25:44.969376,1.00273219,.00035624,0.0550,29.8076,105.1207,278.5612,0,U,37810,999,5435,0,.118E-5,0
EUTELSAT 7 WEST A,2011-051A,2026-07-19T06:17:53.222784,1.00271648,.00048003,0.0607,358.1491,131.0570,254.9845,0,U,37816,999,5419,0,-.66E-6,0
QUETZSAT 1,2011-054A,2026-07-19T05:58:02.624736,1.00271878,.00028144,0.0431,270.2795,211.8567,187.4120,0,U,37826,999,5019,0,-.247E-5,0
INTELSAT 18 (IS-18),2011-056A,2026-07-19T06:07:38.791776,1.00274773,.00014353,0.0394,234.1228,270.6110,64.2258,0,U,37834,999,5413,0,.48E-6,0
EUTELSAT 16A,2011-057A,2026-07-19T06:24:30.089088,1.00269945,.00055367,0.0444,31.2246,87.3978,290.5640,0,U,37836,999,765,0,.99E-6,0
VIASAT-1,2011-059A,2026-07-19T05:19:38.637408,1.00271488,.0002461,0.0190,54.3152,54.6903,152.8245,0,U,37843,999,4764,0,0,0
ASIASAT 7,2011-069A,2026-07-18T20:54:12.138912,1.00270619,.00013044,0.0254,76.6701,14.9015,264.1552,0,U,37933,999,4517,0,-.34E-5,0
BEIDOU-2 IGSO-5,2011-073A,2026-07-02T17:30:18.330912,1.00270596,.01145273,47.6496,271.3544,222.0502,141.5350,0,U,37948,999,5329,0,-.128E-5,0
LUCH-5A,2011-074B,2026-07-18T12:54:19.185984,1.00273792,.00027406,8.8316,73.3451,60.5783,163.0027,0,U,37951,999,5336,0,-.6E-6,0
NIGCOMSAT 1R,2011-077A,2026-07-19T06:32:06.859104,1.00273195,.00024074,0.0352,109.8020,241.2795,86.4944,0,U,38014,999,5327,0,.14E-5,0
WGS F4 (USA 233),2012-003A,2026-07-19T02:57:21.702240,1.00269849,.0000189,0.0203,54.8272,112.9023,261.9323,0,U,38070,999,4446,0,-.22E-5,0
SES-4,2012-007A,2026-07-18T23:46:38.730720,1.00272148,.00025077,0.0229,32.4350,88.9002,150.1212,0,U,38087,999,5254,0,-.174E-5,0
BEIDOU-2 G5,2012-008A,2026-07-19T03:11:29.994720,1.00271504,.00073046,3.6519,69.4979,269.3906,64.5616,0,U,38091,999,5268,0,.5E-6,0
MUOS-1,2012-009A,2026-07-19T06:42:38.615904,1.00271522,.00565687,5.5395,47.1071,3.6429,247.0305,0,U,38093,999,5276,0,-.135E-5,0
INTELSAT 22 (IS-22),2012-011A,2026-07-19T04:32:21.417792,1.00272040,.00018418,0.0210,61.7067,68.6460,306.8175,0,U,38098,999,750,0,-.64E-6,0
APSTAR-7,2012-013A,2026-07-19T04:17:21.600672,1.00271104,.00030281,0.0321,95.9712,31.3592,310.4752,0,U,38107,999,5212,0,-.107E-5,0
YAHSAT 1B,2012-016A,2026-07-19T04:50:59.173728,1.00269324,.0002607,0.0868,88.9713,23.5094,304.8603,0,U,38245,999,4592,0,.121E-5,0
AEHF-2 (USA 235),2012-019A,2026-07-18T22:08:38.623200,1.00271966,.00021657,6.7213,57.2448,63.3561,131.7954,0,U,38254,999,730,0,-.144E-5,0
JCSAT-13,2012-023A,2026-07-19T06:55:19.632288,1.00272717,.00021177,0.0173,53.9877,62.3830,48.5434,0,U,38331,999,5186,0,-.361E-5,0
VINASAT-2,2012-023B,2026-07-19T05:14:49.388352,1.00272347,.0002303,0.0182,344.6448,129.4818,33.4305,0,U,38332,999,4698,0,-.334E-5,0
NIMIQ 6,2012-026A,2026-07-19T05:35:38.662368,1.00271412,.0002852,0.0605,264.2209,217.3143,168.2981,0,U,38342,999,5073,0,-.179E-5,0
ZHONGXING-2A,2012-028A,2026-07-19T02:32:21.671232,1.00269034,.00014701,1.5355,83.4774,39.9069,309.8330,0,U,38352,999,5161,0,-.298E-5,0
INTELSAT 19 (IS-19),2012-030A,2026-07-19T05:24:40.942368,1.00272108,.00029568,0.0149,56.3088,60.7094,67.1535,0,U,38356,999,5077,0,-.62E-6,0
ECHOSTAR 17,2012-035A,2026-07-19T04:06:46.069920,1.00271813,.00022499,0.0188,57.8688,56.0962,137.5815,0,U,38551,999,5138,0,-.81E-6,0
METEOSAT-10 (MSG-3),2012-035B,2026-07-19T06:20:00.519360,1.00272097,.00013472,4.7459,60.8626,17.4483,313.7879,0,U,38552,999,5117,0,-.14E-6,0
SES-5,2012-036A,2026-07-18T23:30:38.824992,1.00272416,.00019447,0.0439,320.8002,157.8120,175.7944,0,U,38652,999,4477,0,.28E-6,0
INTELSAT 20 (IS-20),2012-043A,2026-07-19T04:42:21.668832,1.00271123,.00013443,0.0153,74.3878,108.5740,253.1165,0,U,38740,999,5106,0,-.3E-6,0
HYLAS 2,2012-043B,2026-07-19T05:37:22.000224,1.00272087,.00024385,2.5082,80.6807,55.4747,172.6360,0,U,38741,999,5109,0,-.264E-5,0
INTELSAT 21 (IS-21),2012-045A,2026-07-19T05:15:32.126112,1.00271887,.00017256,0.0491,244.4090,243.9872,189.5020,0,U,38749,999,5084,0,-.29E-5,0
ASTRA 2F,2012-051A,2026-07-19T06:27:59.753376,1.00271736,.00030992,0.0780,254.6844,287.1865,240.3330,0,U,38778,999,4145,0,.145E-5,0
GSAT-10,2012-051B,2026-07-19T02:57:21.702240,1.00272771,.00075343,0.0804,264.2180,191.0117,329.0291,0,U,38779,999,5041,0,-.17E-5,0
